0 FENGYUN 1C DEB
1 36667U 99025DYM 13288.15860429  .00001818  00000-0  13451-2 0   737
2 36667 097.7637 263.3041 0139227 012.3506 348.2624 13.91779884297272
0 FENGYUN 1C DEB
1 36667U 99025DYM 13295.77881653  .00002430  00000-0  17925-2 0   747
2 36667 097.7655 269.6940 0137339 351.3639 008.8157 13.91823283298335
